STARLINK-2666           
1 48666U 21044AE  26068.40413016  .00001040  00000+0  88653-4 0  9990
2 48666  53.0551 113.3735 0001441  97.7439 262.3713 15.06412995263796
TEIKYOSAT-4 (OORURI)    
1 49396U 21102B   26068.67534185  .00002438  00000+0  15740-3 0  9994
2 49396  97.3797 101.9931 0010345 276.5421  83.4630 15.09119208237719
